[{"OBJECT_NAME":"PRAETORIAN SDA_621","OBJECT_ID":"2025-203V","EPOCH":"2026-03-09T14:20:07.156320","MEAN_MOTION":13.83787478,"ECCENTRICITY":0.0008673,"INCLINATION":81.2989,"RA_OF_ASC_NODE":102.9072,"ARG_OF_PERICENTER":96.3239,"MEAN_ANOMALY":263.8905,"EPHEMERIS_TYPE":0,"CLASSIFICATION_TYPE":"U","NORAD_CAT_ID":65584,"ELEMENT_SET_NO":999,"REV_AT_EPOCH":2492,"BSTAR":5.4754e-5,"MEAN_MOTION_DOT":7.3e-7,"MEAN_MOTION_DDOT":0},{"OBJECT_NAME":"FENGYUN 1C DEB","OBJECT_ID":"1999-025ETU","EPOCH":"2026-02-23T19:29:00.180096","MEAN_MOTION":14.04578693,"ECCENTRICITY":0.01041085,"INCLINATION":98.6073,"RA_OF_ASC_NODE":53.4034,"ARG_OF_PERICENTER":16.4155,"MEAN_ANOMALY":104.6652,"EPHEMERIS_TYPE":0,"CLASSIFICATION_TYPE":"U","NORAD_CAT_ID":38727,"ELEMENT_SET_NO":999,"REV_AT_EPOCH":72858,"BSTAR":0.0019524764,"MEAN_MOTION_DOT":3.234e-5,"MEAN_MOTION_DDOT":0}]
